[{"OBJECT_NAME":"ONEWEB-0184","OBJECT_ID":"2021-031B","EPOCH":"2026-06-20T06:32:54.880224","MEAN_MOTION":13.14503123,"ECCENTRICITY":0.0001695,"INCLINATION":87.8976,"RA_OF_ASC_NODE":289.0852,"ARG_OF_PERICENTER":125.8914,"MEAN_ANOMALY":234.2374,"EPHEMERIS_TYPE":0,"CLASSIFICATION_TYPE":"U","NORAD_CAT_ID":48211,"ELEMENT_SET_NO":999,"REV_AT_EPOCH":24869,"BSTAR":-0.00046778,"MEAN_MOTION_DOT":-1.61e-06,"MEAN_MOTION_DDOT":0.0},{"OBJECT_NAME":"ONEWEB-0179","OBJECT_ID":"2021-031C","EPOCH":"2026-06-20T07:46:24.509856","MEAN_MOTION":14.25524723,"ECCENTRICITY":0.0218872,"INCLINATION":87.8992,"RA_OF_ASC_NODE":286.2172,"ARG_OF_PERICENTER":246.8729,"MEAN_ANOMALY":110.9266,"EPHEMERIS_TYPE":0,"CLASSIFICATION_TYPE":"U","NORAD_CAT_ID":48212,"ELEMENT_SET_NO":999,"REV_AT_EPOCH":24949,"BSTAR":5.8722e-05,"MEAN_MOTION_DOT":1.95e-06,"MEAN_MOTION_DDOT":0.0},{"OBJECT_NAME":"ONEWEB-0180","OBJECT_ID":"2021-031D","EPOCH":"2026-06-20T06:37:30.275040","MEAN_MOTION":13.14497509,"ECCENTRICITY":0.0002259,"INCLINATION":87.8984,"RA_OF_ASC_NODE":289.0788,"ARG_OF_PERICENTER":113.1916,"MEAN_ANOMALY":246.9452,"EPHEMERIS_TYPE":0,"CLASSIFICATION_TYPE":"U","NORAD_CAT_ID":48213,"ELEMENT_SET_NO":999,"REV_AT_EPOCH":24862,"BSTAR":-0.00193,"MEAN_MOTION_DOT":-7.03e-06,"MEAN_MOTION_DDOT":0.0},{"OBJECT_NAME":"ONEWEB-0218","OBJECT_ID":"2021-031E","EPOCH":"2026-06-20T07:09:27.729504","MEAN_MOTION":13.14502614,"ECCENTRICITY":0.0001989,"INCLINATION":87.8976,"RA_OF_ASC_NODE":289.0753,"ARG_OF_PERICENTER":127.3044,"MEAN_ANOMALY":232.8267,"EPHEMERIS_TYPE":0,"CLASSIFICATION_TYPE":"U","NORAD_CAT_ID":48214,"ELEMENT_SET_NO":999,"REV_AT_EPOCH":24878,"BSTAR":0.00011985,"MEAN_MOTION_DOT":5.7e-07,"MEAN_MOTION_DDOT":0.0},{"OBJECT_NAME":"ONEWEB-0209","OBJECT_ID":"2021-031F","EPOCH":"2026-06-20T06:53:27.715776","MEAN_MOTION":13.14502089,"ECCENTRICITY":0.0002165,"INCLINATION":87.8967,"RA_OF_ASC_NODE":289.0944,"ARG_OF_PERICENTER":102.8094,"MEAN_ANOMALY":257.3278,"EPHEMERIS_TYPE":0,"CLASSIFICATION_TYPE":"U","NORAD_CAT_ID":48215,"ELEMENT_SET_NO":999,"REV_AT_EPOCH":24878,"BSTAR":-0.00033837,"MEAN_MOTION_DOT":-1.13e-06,"MEAN_MOTION_DDOT":0.0},{"OBJECT_NAME":"ONEWEB-0198","OBJECT_ID":"2021-031G","EPOCH":"2026-06-20T06:30:50.407200","MEAN_MOTION":13.14502534,"ECCENTRICITY":0.0002137,"INCLINATION":87.8961,"RA_OF_ASC_NODE":289.0966,"ARG_OF_PERICENTER":112.1156,"MEAN_ANOMALY":248.02,"EPHEMERIS_TYPE":0,"CLASSIFICATION_TYPE":"U","NORAD_CAT_ID":48216,"ELEMENT_SET_NO":999,"REV_AT_EPOCH":24889,"BSTAR":-0.00040814000000000003,"MEAN_MOTION_DOT":-1.39e-06,"MEAN_MOTION_DDOT":0.0},{"OBJECT_NAME":"ONEWEB-0189","OBJECT_ID":"2021-031H","EPOCH":"2026-06-20T06:48:54.259776","MEAN_MOTION":13.14503552,"ECCENTRICITY":0.0002098,"INCLINATION":87.8971,"RA_OF_ASC_NODE":289.0805,"ARG_OF_PERICENTER":109.8782,"MEAN_ANOMALY":250.2574,"EPHEMERIS_TYPE":0,"CLASSIFICATION_TYPE":"U","NORAD_CAT_ID":48217,"ELEMENT_SET_NO":999,"REV_AT_EPOCH":24863,"BSTAR":-0.0003778,"MEAN_MOTION_DOT":-1.27e-06,"MEAN_MOTION_DDOT":0.0},{"OBJECT_NAME":"ONEWEB-0196","OBJECT_ID":"2021-031J","EPOCH":"2026-06-19T21:08:53.361888","MEAN_MOTION":13.1450283,"ECCENTRICITY":0.0002022,"INCLINATION":87.8969,"RA_OF_ASC_NODE":289.1697,"ARG_OF_PERICENTER":104.4478,"MEAN_ANOMALY":255.6876,"EPHEMERIS_TYPE":0,"CLASSIFICATION_TYPE":"U","NORAD_CAT_ID":48218,"ELEMENT_SET_NO":999,"REV_AT_EPOCH":24858,"BSTAR":-8.5704e-05,"MEAN_MOTION_DOT":-1.9e-07,"MEAN_MOTION_DDOT":0.0},{"OBJECT_NAME":"ONEWEB-0183","OBJECT_ID":"2021-031K","EPOCH":"2026-06-20T07:30:00.670464","MEAN_MOTION":13.14503338,"ECCENTRICITY":0.0002048,"INCLINATION":87.8967,"RA_OF_ASC_NODE":289.0818,"ARG_OF_PERICENTER":96.164,"MEAN_ANOMALY":263.9723,"EPHEMERIS_TYPE":0,"CLASSIFICATION_TYPE":"U","NORAD_CAT_ID":48219,"ELEMENT_SET_NO":999,"REV_AT_EPOCH":24873,"BSTAR":0.0007507200000000001,"MEAN_MOTION_DOT":2.91e-06,"MEAN_MOTION_DDOT":0.0},{"OBJECT_NAME":"ONEWEB-0185","OBJECT_ID":"2021-031L","EPOCH":"2026-06-20T06:18:04.177440","MEAN_MOTION":13.1450269,"ECCENTRICITY":0.0002376,"INCLINATION":87.8976,"RA_OF_ASC_NODE":289.0854,"ARG_OF_PERICENTER":99.9244,"MEAN_ANOMALY":260.2154,"EPHEMERIS_TYPE":0,"CLASSIFICATION_TYPE":"U","NORAD_CAT_ID":48220,"ELEMENT_SET_NO":999,"REV_AT_EPOCH":24865,"BSTAR":-9.7852e-05,"MEAN_MOTION_DOT":-2.3e-07,"MEAN_MOTION_DDOT":0.0},{"OBJECT_NAME":"ONEWEB-0187","OBJECT_ID":"2021-031M","EPOCH":"2026-06-19T20:41:16.204704","MEAN_MOTION":13.14501101,"ECCENTRICITY":0.0002116,"INCLINATION":87.8961,"RA_OF_ASC_NODE":289.1806,"ARG_OF_PERICENTER":103.6961,"MEAN_ANOMALY":256.4405,"EPHEMERIS_TYPE":0,"CLASSIFICATION_TYPE":"U","NORAD_CAT_ID":48221,"ELEMENT_SET_NO":999,"REV_AT_EPOCH":24861,"BSTAR":0.00068004,"MEAN_MOTION_DOT":2.65e-06,"MEAN_MOTION_DDOT":0.0},{"OBJECT_NAME":"ONEWEB-0192","OBJECT_ID":"2021-031N","EPOCH":"2026-06-20T06:55:44.938848","MEAN_MOTION":13.1450137,"ECCENTRICITY":0.0001927,"INCLINATION":87.8967,"RA_OF_ASC_NODE":289.086,"ARG_OF_PERICENTER":103.8,"MEAN_ANOMALY":256.3345,"EPHEMERIS_TYPE":0,"CLASSIFICATION_TYPE":"U","NORAD_CAT_ID":48222,"ELEMENT_SET_NO":999,"REV_AT_EPOCH":24858,"BSTAR":-0.00026241,"MEAN_MOTION_DOT":-8.4e-07,"MEAN_MOTION_DDOT":0.0},{"OBJECT_NAME":"ONEWEB-0219","OBJECT_ID":"2021-031P","EPOCH":"2026-06-20T06:26:02.825664","MEAN_MOTION":13.14501271,"ECCENTRICITY":0.0002158,"INCLINATION":87.8968,"RA_OF_ASC_NODE":289.0819,"ARG_OF_PERICENTER":102.7094,"MEAN_ANOMALY":257.4278,"EPHEMERIS_TYPE":0,"CLASSIFICATION_TYPE":"U","NORAD_CAT_ID":48223,"ELEMENT_SET_NO":999,"REV_AT_EPOCH":24878,"BSTAR":-0.00038807,"MEAN_MOTION_DOT":-1.31e-06,"MEAN_MOTION_DDOT":0.0},{"OBJECT_NAME":"ONEWEB-0202","OBJECT_ID":"2021-031Q","EPOCH":"2026-06-19T20:50:37.735584","MEAN_MOTION":13.14502616,"ECCENTRICITY":0.0001955,"INCLINATION":87.8971,"RA_OF_ASC_NODE":289.1744,"ARG_OF_PERICENTER":121.5455,"MEAN_ANOMALY":238.5866,"EPHEMERIS_TYPE":0,"CLASSIFICATION_TYPE":"U","NORAD_CAT_ID":48224,"ELEMENT_SET_NO":999,"REV_AT_EPOCH":24871,"BSTAR":0.00040969,"MEAN_MOTION_DOT":1.65e-06,"MEAN_MOTION_DDOT":0.0},{"OBJECT_NAME":"ONEWEB-0204","OBJECT_ID":"2021-031R","EPOCH":"2026-06-20T06:47:44.870208","MEAN_MOTION":13.14507597,"ECCENTRICITY":0.0002109,"INCLINATION":87.8974,"RA_OF_ASC_NODE":289.0863,"ARG_OF_PERICENTER":91.2563,"MEAN_ANOMALY":268.8808,"EPHEMERIS_TYPE":0,"CLASSIFICATION_TYPE":"U","NORAD_CAT_ID":48225,"ELEMENT_SET_NO":999,"REV_AT_EPOCH":24866,"BSTAR":-0.0034449000000000003,"MEAN_MOTION_DOT":-1.264e-05,"MEAN_MOTION_DDOT":0.0},{"OBJECT_NAME":"ONEWEB-0205","OBJECT_ID":"2021-031S","EPOCH":"2026-06-20T06:12:21.031200","MEAN_MOTION":13.14501163,"ECCENTRICITY":0.0002181,"INCLINATION":87.8976,"RA_OF_ASC_NODE":289.0844,"ARG_OF_PERICENTER":105.0178,"MEAN_ANOMALY":255.1193,"EPHEMERIS_TYPE":0,"CLASSIFICATION_TYPE":"U","NORAD_CAT_ID":48226,"ELEMENT_SET_NO":999,"REV_AT_EPOCH":24867,"BSTAR":0.0001376,"MEAN_MOTION_DOT":6.4e-07,"MEAN_MOTION_DDOT":0.0}]