ONEWEB-0184             
1 48211U 21031B   26171.27285741 -.00000161  00000+0 -46778-3 0  9990
2 48211  87.8976 289.0852 0001695 125.8914 234.2374 13.14503123248695
ONEWEB-0179             
1 48212U 21031C   26171.32389479  .00000195  00000+0  58722-4 0  9998
2 48212  87.8992 286.2172 0218872 246.8729 110.9266 14.25524723249494
ONEWEB-0180             
1 48213U 21031D   26171.27604485 -.00000703  00000+0 -19300-2 0  9994
2 48213  87.8984 289.0788 0002259 113.1916 246.9452 13.14497509248623
ONEWEB-0218             
1 48214U 21031E   26171.29823761  .00000057  00000+0  11985-3 0  9999
2 48214  87.8976 289.0753 0001989 127.3044 232.8267 13.14502614248784
ONEWEB-0209             
1 48215U 21031F   26171.28712634 -.00000113  00000+0 -33837-3 0  9990
2 48215  87.8967 289.0944 0002165 102.8094 257.3278 13.14502089248787
ONEWEB-0198             
1 48216U 21031G   26171.27141675 -.00000139  00000+0 -40814-3 0  9992
2 48216  87.8961 289.0966 0002137 112.1156 248.0200 13.14502534248897
ONEWEB-0189             
1 48217U 21031H   26171.28396134 -.00000127  00000+0 -37780-3 0  9991
2 48217  87.8971 289.0805 0002098 109.8782 250.2574 13.14503552248637
ONEWEB-0196             
1 48218U 21031J   26170.88117317 -.00000019  00000+0 -85704-4 0  9991
2 48218  87.8969 289.1697 0002022 104.4478 255.6876 13.14502830248581
ONEWEB-0183             
1 48219U 21031K   26171.31250776  .00000291  00000+0  75072-3 0  9994
2 48219  87.8967 289.0818 0002048  96.1640 263.9723 13.14503338248734
ONEWEB-0185             
1 48220U 21031L   26171.26254835 -.00000023  00000+0 -97852-4 0  9996
2 48220  87.8976 289.0854 0002376  99.9244 260.2154 13.14502690248650
ONEWEB-0187             
1 48221U 21031M   26170.86199311  .00000265  00000+0  68004-3 0  9991
2 48221  87.8961 289.1806 0002116 103.6961 256.4405 13.14501101248612
ONEWEB-0192             
1 48222U 21031N   26171.28871457 -.00000084  00000+0 -26241-3 0  9995
2 48222  87.8967 289.0860 0001927 103.8000 256.3345 13.14501370248589
ONEWEB-0219             
1 48223U 21031P   26171.26808826 -.00000131  00000+0 -38807-3 0  9998
2 48223  87.8968 289.0819 0002158 102.7094 257.4278 13.14501271248782
ONEWEB-0202             
1 48224U 21031Q   26170.86849231  .00000165  00000+0  40969-3 0  9996
2 48224  87.8971 289.1744 0001955 121.5455 238.5866 13.14502616248719
ONEWEB-0204             
1 48225U 21031R   26171.28315822 -.00001264  00000+0 -34449-2 0  9996
2 48225  87.8974 289.0863 0002109  91.2563 268.8808 13.14507597248668
ONEWEB-0205             
1 48226U 21031S   26171.25857675  .00000064  00000+0  13760-3 0  9990
2 48226  87.8976 289.0844 0002181 105.0178 255.1193 13.14501163248676
